[{"OBJECT_NAME":"ONEWEB-0027","OBJECT_ID":"2020-020J","EPOCH":"2025-12-14T04:09:48.482784","MEAN_MOTION":13.17647707,"ECCENTRICITY":0.00013891,"INCLINATION":87.9118,"RA_OF_ASC_NODE":42.6277,"ARG_OF_PERICENTER":95.3552,"MEAN_ANOMALY":264.7738,"EPHEMERIS_TYPE":0,"CLASSIFICATION_TYPE":"U","NORAD_CAT_ID":45432,"ELEMENT_SET_NO":999,"REV_AT_EPOCH":28199,"BSTAR":-3.155636e-6,"MEAN_MOTION_DOT":1.2e-7,"MEAN_MOTION_DDOT":0},{"OBJECT_NAME":"ONEWEB-0064","OBJECT_ID":"2020-020K","EPOCH":"2025-12-14T03:59:03.385824","MEAN_MOTION":13.11420107,"ECCENTRICITY":0.00015862,"INCLINATION":87.8858,"RA_OF_ASC_NODE":57.9163,"ARG_OF_PERICENTER":98.7382,"MEAN_ANOMALY":261.3925,"EPHEMERIS_TYPE":0,"CLASSIFICATION_TYPE":"U","NORAD_CAT_ID":45433,"ELEMENT_SET_NO":999,"REV_AT_EPOCH":27843,"BSTAR":-0.00052123457,"MEAN_MOTION_DOT":-1.72e-6,"MEAN_MOTION_DDOT":0},{"OBJECT_NAME":"ONEWEB-0018","OBJECT_ID":"2020-020L","EPOCH":"2025-12-14T06:35:19.375584","MEAN_MOTION":13.1141728,"ECCENTRICITY":0.00018978,"INCLINATION":87.8864,"RA_OF_ASC_NODE":57.8848,"ARG_OF_PERICENTER":100.2624,"MEAN_ANOMALY":259.8718,"EPHEMERIS_TYPE":0,"CLASSIFICATION_TYPE":"U","NORAD_CAT_ID":45434,"ELEMENT_SET_NO":999,"REV_AT_EPOCH":27839,"BSTAR":0.0011254643,"MEAN_MOTION_DOT":4.12e-6,"MEAN_MOTION_DDOT":0},{"OBJECT_NAME":"ONEWEB-0083","OBJECT_ID":"2020-020M","EPOCH":"2025-12-14T06:21:54.254592","MEAN_MOTION":13.11418122,"ECCENTRICITY":0.00016893,"INCLINATION":87.8861,"RA_OF_ASC_NODE":57.8755,"ARG_OF_PERICENTER":100.2909,"MEAN_ANOMALY":259.8409,"EPHEMERIS_TYPE":0,"CLASSIFICATION_TYPE":"U","NORAD_CAT_ID":45435,"ELEMENT_SET_NO":999,"REV_AT_EPOCH":27843,"BSTAR":0.0013398244,"MEAN_MOTION_DOT":4.88e-6,"MEAN_MOTION_DDOT":0},{"OBJECT_NAME":"ONEWEB-0095","OBJECT_ID":"2020-020N","EPOCH":"2025-12-14T06:08:40.369920","MEAN_MOTION":13.11417125,"ECCENTRICITY":0.00012538,"INCLINATION":87.8859,"RA_OF_ASC_NODE":57.8886,"ARG_OF_PERICENTER":127.7034,"MEAN_ANOMALY":232.4207,"EPHEMERIS_TYPE":0,"CLASSIFICATION_TYPE":"U","NORAD_CAT_ID":45436,"ELEMENT_SET_NO":999,"REV_AT_EPOCH":27843,"BSTAR":0.00093586274,"MEAN_MOTION_DOT":3.44e-6,"MEAN_MOTION_DDOT":0},{"OBJECT_NAME":"ONEWEB-0092","OBJECT_ID":"2020-020P","EPOCH":"2025-12-14T05:28:10.330176","MEAN_MOTION":13.11416579,"ECCENTRICITY":0.00016039,"INCLINATION":87.8864,"RA_OF_ASC_NODE":57.8933,"ARG_OF_PERICENTER":110.6147,"MEAN_ANOMALY":249.5154,"EPHEMERIS_TYPE":0,"CLASSIFICATION_TYPE":"U","NORAD_CAT_ID":45437,"ELEMENT_SET_NO":999,"REV_AT_EPOCH":27854,"BSTAR":-0.0020057393,"MEAN_MOTION_DOT":-6.98e-6,"MEAN_MOTION_DDOT":0},{"OBJECT_NAME":"ONEWEB-0085","OBJECT_ID":"2020-020Q","EPOCH":"2025-12-14T06:20:39.572160","MEAN_MOTION":13.11420148,"ECCENTRICITY":0.00017107,"INCLINATION":87.8856,"RA_OF_ASC_NODE":57.8943,"ARG_OF_PERICENTER":103.8567,"MEAN_ANOMALY":256.2751,"EPHEMERIS_TYPE":0,"CLASSIFICATION_TYPE":"U","NORAD_CAT_ID":45438,"ELEMENT_SET_NO":999,"REV_AT_EPOCH":27843,"BSTAR":0.0015480806,"MEAN_MOTION_DOT":5.61e-6,"MEAN_MOTION_DDOT":0},{"OBJECT_NAME":"ONEWEB-0096","OBJECT_ID":"2020-020R","EPOCH":"2025-12-14T04:33:16.247232","MEAN_MOTION":13.11419911,"ECCENTRICITY":0.0001778,"INCLINATION":87.8866,"RA_OF_ASC_NODE":57.8896,"ARG_OF_PERICENTER":105.0159,"MEAN_ANOMALY":255.1166,"EPHEMERIS_TYPE":0,"CLASSIFICATION_TYPE":"U","NORAD_CAT_ID":45439,"ELEMENT_SET_NO":999,"REV_AT_EPOCH":27841,"BSTAR":0.0014788354,"MEAN_MOTION_DOT":5.37e-6,"MEAN_MOTION_DDOT":0},{"OBJECT_NAME":"ONEWEB-0037","OBJECT_ID":"2020-020S","EPOCH":"2025-12-14T05:55:01.368768","MEAN_MOTION":13.114186,"ECCENTRICITY":0.00016733,"INCLINATION":87.8875,"RA_OF_ASC_NODE":57.8483,"ARG_OF_PERICENTER":105.7341,"MEAN_ANOMALY":254.3972,"EPHEMERIS_TYPE":0,"CLASSIFICATION_TYPE":"U","NORAD_CAT_ID":45440,"ELEMENT_SET_NO":999,"REV_AT_EPOCH":27845,"BSTAR":-0.0008842402,"MEAN_MOTION_DOT":-3.01e-6,"MEAN_MOTION_DDOT":0},{"OBJECT_NAME":"ONEWEB-0042","OBJECT_ID":"2020-020T","EPOCH":"2025-12-14T06:08:15.154080","MEAN_MOTION":13.11418052,"ECCENTRICITY":0.0001782,"INCLINATION":87.8866,"RA_OF_ASC_NODE":57.8759,"ARG_OF_PERICENTER":106.7951,"MEAN_ANOMALY":253.3373,"EPHEMERIS_TYPE":0,"CLASSIFICATION_TYPE":"U","NORAD_CAT_ID":45441,"ELEMENT_SET_NO":999,"REV_AT_EPOCH":27842,"BSTAR":0.00020804203,"MEAN_MOTION_DOT":8.6e-7,"MEAN_MOTION_DDOT":0},{"OBJECT_NAME":"ONEWEB-0098","OBJECT_ID":"2020-020U","EPOCH":"2025-12-14T06:02:21.746112","MEAN_MOTION":13.11418997,"ECCENTRICITY":0.00017059,"INCLINATION":87.8866,"RA_OF_ASC_NODE":57.8887,"ARG_OF_PERICENTER":99.9025,"MEAN_ANOMALY":260.2296,"EPHEMERIS_TYPE":0,"CLASSIFICATION_TYPE":"U","NORAD_CAT_ID":45442,"ELEMENT_SET_NO":999,"REV_AT_EPOCH":27840,"BSTAR":0.00064104569,"MEAN_MOTION_DOT":2.4e-6,"MEAN_MOTION_DDOT":0},{"OBJECT_NAME":"ONEWEB-0055","OBJECT_ID":"2020-020V","EPOCH":"2025-12-14T03:48:03.809952","MEAN_MOTION":13.11416503,"ECCENTRICITY":0.00017178,"INCLINATION":87.8865,"RA_OF_ASC_NODE":57.9081,"ARG_OF_PERICENTER":100.8344,"MEAN_ANOMALY":259.2977,"EPHEMERIS_TYPE":0,"CLASSIFICATION_TYPE":"U","NORAD_CAT_ID":45443,"ELEMENT_SET_NO":999,"REV_AT_EPOCH":27836,"BSTAR":-0.0016016607,"MEAN_MOTION_DOT":-5.55e-6,"MEAN_MOTION_DDOT":0},{"OBJECT_NAME":"ONEWEB-0093","OBJECT_ID":"2020-020W","EPOCH":"2025-12-14T05:02:45.218976","MEAN_MOTION":13.1141509,"ECCENTRICITY":0.00021239,"INCLINATION":87.8863,"RA_OF_ASC_NODE":57.8847,"ARG_OF_PERICENTER":109.9119,"MEAN_ANOMALY":250.2238,"EPHEMERIS_TYPE":0,"CLASSIFICATION_TYPE":"U","NORAD_CAT_ID":45444,"ELEMENT_SET_NO":999,"REV_AT_EPOCH":27843,"BSTAR":-0.0001818195,"MEAN_MOTION_DOT":-5.2e-7,"MEAN_MOTION_DDOT":0},{"OBJECT_NAME":"ONEWEB-0029","OBJECT_ID":"2020-020X","EPOCH":"2025-12-14T05:25:43.830336","MEAN_MOTION":13.11417481,"ECCENTRICITY":0.00018476,"INCLINATION":87.8866,"RA_OF_ASC_NODE":57.8942,"ARG_OF_PERICENTER":102.2727,"MEAN_ANOMALY":257.8608,"EPHEMERIS_TYPE":0,"CLASSIFICATION_TYPE":"U","NORAD_CAT_ID":45445,"ELEMENT_SET_NO":999,"REV_AT_EPOCH":27841,"BSTAR":-0.0015958499,"MEAN_MOTION_DOT":-5.53e-6,"MEAN_MOTION_DDOT":0},{"OBJECT_NAME":"ONEWEB-0068","OBJECT_ID":"2020-020Y","EPOCH":"2025-12-14T06:52:13.499904","MEAN_MOTION":13.1141631,"ECCENTRICITY":0.00019241,"INCLINATION":87.8866,"RA_OF_ASC_NODE":57.8713,"ARG_OF_PERICENTER":102.9683,"MEAN_ANOMALY":257.166,"EPHEMERIS_TYPE":0,"CLASSIFICATION_TYPE":"U","NORAD_CAT_ID":45446,"ELEMENT_SET_NO":999,"REV_AT_EPOCH":27836,"BSTAR":-7.0988635e-5,"MEAN_MOTION_DOT":-1.2e-7,"MEAN_MOTION_DDOT":0},{"OBJECT_NAME":"ONEWEB-0046","OBJECT_ID":"2020-020Z","EPOCH":"2025-12-14T04:50:21.278688","MEAN_MOTION":13.11413452,"ECCENTRICITY":0.0001844,"INCLINATION":87.8863,"RA_OF_ASC_NODE":57.8959,"ARG_OF_PERICENTER":110.6091,"MEAN_ANOMALY":249.5235,"EPHEMERIS_TYPE":0,"CLASSIFICATION_TYPE":"U","NORAD_CAT_ID":45447,"ELEMENT_SET_NO":999,"REV_AT_EPOCH":27836,"BSTAR":0.00078180709,"MEAN_MOTION_DOT":2.9e-6,"MEAN_MOTION_DDOT":0},{"OBJECT_NAME":"ONEWEB-0063","OBJECT_ID":"2020-020AA","EPOCH":"2025-12-14T03:41:59.122464","MEAN_MOTION":13.11419554,"ECCENTRICITY":0.00016529,"INCLINATION":87.8863,"RA_OF_ASC_NODE":57.9033,"ARG_OF_PERICENTER":111.8385,"MEAN_ANOMALY":248.2919,"EPHEMERIS_TYPE":0,"CLASSIFICATION_TYPE":"U","NORAD_CAT_ID":45448,"ELEMENT_SET_NO":999,"REV_AT_EPOCH":27844,"BSTAR":-0.001301036,"MEAN_MOTION_DOT":-4.48e-6,"MEAN_MOTION_DDOT":0},{"OBJECT_NAME":"ONEWEB-0019","OBJECT_ID":"2020-020AB","EPOCH":"2025-12-14T04:47:08.631744","MEAN_MOTION":13.11989928,"ECCENTRICITY":0.00017206,"INCLINATION":87.8851,"RA_OF_ASC_NODE":57.9011,"ARG_OF_PERICENTER":98.9688,"MEAN_ANOMALY":261.1635,"EPHEMERIS_TYPE":0,"CLASSIFICATION_TYPE":"U","NORAD_CAT_ID":45449,"ELEMENT_SET_NO":999,"REV_AT_EPOCH":27829,"BSTAR":0.0011219178,"MEAN_MOTION_DOT":4.14e-6,"MEAN_MOTION_DDOT":0},{"OBJECT_NAME":"ONEWEB-0094","OBJECT_ID":"2020-020AC","EPOCH":"2025-12-14T05:20:16.990368","MEAN_MOTION":13.17647336,"ECCENTRICITY":0.00018566,"INCLINATION":87.9122,"RA_OF_ASC_NODE":42.6131,"ARG_OF_PERICENTER":96.7831,"MEAN_ANOMALY":263.3512,"EPHEMERIS_TYPE":0,"CLASSIFICATION_TYPE":"U","NORAD_CAT_ID":45450,"ELEMENT_SET_NO":999,"REV_AT_EPOCH":28195,"BSTAR":-1.4893141e-5,"MEAN_MOTION_DOT":7.0e-8,"MEAN_MOTION_DDOT":0},{"OBJECT_NAME":"ONEWEB-0087","OBJECT_ID":"2020-020AD","EPOCH":"2025-12-14T03:56:25.619424","MEAN_MOTION":13.11417269,"ECCENTRICITY":0.00020168,"INCLINATION":87.8875,"RA_OF_ASC_NODE":57.8595,"ARG_OF_PERICENTER":101.6533,"MEAN_ANOMALY":258.4821,"EPHEMERIS_TYPE":0,"CLASSIFICATION_TYPE":"U","NORAD_CAT_ID":45451,"ELEMENT_SET_NO":999,"REV_AT_EPOCH":27833,"BSTAR":-0.00048833746,"MEAN_MOTION_DOT":-1.6e-6,"MEAN_MOTION_DDOT":0},{"OBJECT_NAME":"ONEWEB-0082","OBJECT_ID":"2020-020AE","EPOCH":"2025-12-14T03:51:43.462944","MEAN_MOTION":13.11417714,"ECCENTRICITY":0.00019895,"INCLINATION":87.8878,"RA_OF_ASC_NODE":57.8853,"ARG_OF_PERICENTER":101.0545,"MEAN_ANOMALY":259.0807,"EPHEMERIS_TYPE":0,"CLASSIFICATION_TYPE":"U","NORAD_CAT_ID":45452,"ELEMENT_SET_NO":999,"REV_AT_EPOCH":27842,"BSTAR":-0.0016334624,"MEAN_MOTION_DOT":-5.66e-6,"MEAN_MOTION_DDOT":0},{"OBJECT_NAME":"ONEWEB-0050","OBJECT_ID":"2020-020AF","EPOCH":"2025-12-14T04:26:48.174720","MEAN_MOTION":14.89564877,"ECCENTRICITY":8.864e-5,"INCLINATION":88.9233,"RA_OF_ASC_NODE":258.4462,"ARG_OF_PERICENTER":339.5616,"MEAN_ANOMALY":20.5577,"EPHEMERIS_TYPE":0,"CLASSIFICATION_TYPE":"U","NORAD_CAT_ID":45453,"ELEMENT_SET_NO":999,"REV_AT_EPOCH":31283,"BSTAR":0.00043306117,"MEAN_MOTION_DOT":4.149e-5,"MEAN_MOTION_DDOT":0},{"OBJECT_NAME":"ONEWEB-0034","OBJECT_ID":"2020-020AG","EPOCH":"2025-12-14T06:12:08.475552","MEAN_MOTION":13.11417158,"ECCENTRICITY":0.00017411,"INCLINATION":87.8862,"RA_OF_ASC_NODE":57.8799,"ARG_OF_PERICENTER":101.7814,"MEAN_ANOMALY":258.3509,"EPHEMERIS_TYPE":0,"CLASSIFICATION_TYPE":"U","NORAD_CAT_ID":45454,"ELEMENT_SET_NO":999,"REV_AT_EPOCH":27835,"BSTAR":0.0011515697,"MEAN_MOTION_DOT":4.21e-6,"MEAN_MOTION_DDOT":0}]
